CUBEBUG-2 (LO-74)       
1 39440U 13066AA  26173.42199251  .00003222  00000+0  29961-3 0  9996
2 39440  97.8906 122.4220 0057991  11.9910 348.2675 14.93801192677773
FUNCUBE-1 (AO-73)       
1 39444U 13066AE  26173.42589928  .00004268  00000+0  26631-3 0  9996
2 39444  97.8272 144.9807 0036208 182.8900 177.2125 15.09537633680451
UWE-3                   
1 39446U 13066AG  26173.42913192  .00003661  00000+0  31600-3 0  9990
2 39446  97.8705 129.5379 0046984 303.4981  56.1755 14.97061756678364
UNISAT-6                
1 40012U 14033C   26173.31030613  .00002162  00000+0  23554-3 0  9996
2 40012  97.7885 325.9320 0046013  52.8797 307.6611 14.88266927646923
DUCHIFAT-1              
1 40021U 14033M   26172.68931042  .00086182  00000+0  85879-3 0  9993
2 40021  98.0446 232.4851 0002282 109.8910 250.2594 15.65399754656454
QB50P1                  
1 40025U 14033R   26173.48836471  .00005984  00000+0  29507-3 0  9993
2 40025  98.0967 185.0059 0008326 195.8641 164.2332 15.18326980653832
LILACSAT-2              
1 40908U 15049K   26173.81883747  .00014505  00000+0  24595-3 0  9997
2 40908  97.4644 210.8748 0005962 219.1235 140.9587 15.51603659596625
FOX-1A (AO-85)          
1 40967U 15058D   26173.71849476  .00001472  00000+0  14171-3 0  9990
2 40967  64.7742 261.7939 0130756  54.4548 306.8672 14.90988819114394
CAS-2T & KS-1Q          
1 41847U 16066G   26173.85069890  .00001272  00000+0  18516-3 0  9992
2 41847  98.3820 249.5224 0342905 112.3536 251.4371 14.44710015505615
RADFXSAT (FOX-1B)       
1 43017U 17073E   26173.56579702  .00005824  00000+0  25602-3 0  9999
2 43017  97.4701  40.6703 0148969 310.5186  48.3145 15.12782562466208
DIWATA-2B               
1 43678U 18084H   26173.83829685  .00002136  00000+0  17463-3 0  9992
2 43678  98.1199  10.2927 0012867 152.1678 208.0235 15.00474712417061
ES'HAIL 2               
1 43700U 18090A   26173.82103547  .00000147  00000+0  00000+0 0  9991
2 43700   0.0147 298.5974 0001997 189.9310 103.8271  1.00272503 27730
FOX-1CLIFF (AO-95)      
1 43770U 18099N   26172.66553232  .00008295  00000+0  31754-3 0  9994
2 43770  97.4381 232.8956 0007502 340.7571  19.3384 15.26789061413901
ITASAT                  
1 43786U 18099AE  26173.09375829  .00005153  00000+0  24832-3 0  9992
2 43786  97.4028 224.5076 0011561 342.4517  17.6316 15.19106341413650
JY1SAT (JO-97)          
1 43803U 18099AX  26173.44568534  .00013019  00000+0  40045-3 0  9992
2 43803  97.4130 236.2984 0004684 237.9316 122.1473 15.33791959414439
UWE-4                   
1 43880U 18111E   26173.52166677  .00027166  00000+0  54968-3 0  9990
2 43880  97.5841 102.1592 0004611 316.7180  43.3706 15.46410589411605
TIANYAN 01              
1 44881U 19093C   26173.83362181  .00001081  00000+0  12792-3 0  9991
2 44881  97.7526 245.9281 0015084  70.3444 289.9398 14.86528590352257
RS-44 & BREEZE-KM R/B   
1 44909U 19096E   26173.71242865  .00000026  00000+0  50721-4 0  9991
2 44909  82.5223 336.0326 0218361 131.2961 230.7169 12.79748918303052
SALSAT                  
1 46495U 20068K   26173.31277948  .00005705  00000+0  20010-3 0  9996
2 46495  97.8856 176.6896 0007816 286.6046  73.4334 15.29860164316141
XW-3 (CAS-9)            
1 50466U 21131B   26173.81639551  .00000409  00000+0  13998-3 0  9991
2 50466  98.4977 266.1759 0005384  84.1044 276.0759 14.41361831235923
GREENCUBE (IO-117)      
1 53109U 22080E   26173.32029992 -.00000003  00000+0  00000+0 0  9997
2 53109  70.1445 296.4598 0008935 288.3983  71.5705  6.42583197 92393
UMKA 1 (RS40S)          
1 57172U 23091G   26173.81807955  .00004662  00000+0  21365-3 0  9996
2 57172  97.5048 232.4937 0014338 100.3140 259.9713 15.20872074164862
CUBESX-HSE 3 (RS42S)    
1 57178U 23091N   26173.85904525  .00010513  00000+0  34917-3 0  9996
2 57178  97.5090 239.5180 0011820  77.2845 282.9717 15.31333543165293
MONITOR-3 (RS58S)       
1 57180U 23091Q   26173.83059802  .00007999  00000+0  29545-3 0  9991
2 57180  97.5082 237.3180 0012968  83.4433 276.8282 15.27936610165152
MONITOR-4 (RS57S)       
1 57182U 23091S   26173.80934082  .00008202  00000+0  30210-3 0  9991
2 57182  97.5076 237.2684 0012974  83.7335 276.5382 15.28021576165151
MONITOR-2 (RS39S)       
1 57184U 23091U   26173.84641688  .00004006  00000+0  19462-3 0  9998
2 57184  97.5071 232.0929 0012799  94.0133 266.2564 15.18953592164810
SVYATOBOR 1 (RS60S)     
1 57187U 23091X   26173.82728552  .00006517  00000+0  25068-3 0  9993
2 57187  97.5087 237.6756 0010723  77.5479 282.6959 15.26694913165171
VIZARD-METEO (RS38S)    
1 57189U 23091Z   26173.81497102  .00013043  00000+0  37183-3 0  9991
2 57189  97.5090 243.4134 0007905  60.7099 299.4933 15.36175339165559
POLYTECH-UNIVERSE 3 (R*)
1 57191U 23091AB  26173.80699668  .00003681  00000+0  17780-3 0  9992
2 57191  97.5046 231.5579 0017062 108.9729 251.3356 15.19157536164807
UTMN 2 (RS27S)          
1 57203U 23091AP  26173.80823007  .00010462  00000+0  33892-3 0  9999
2 57203  97.5086 241.1075 0008935  66.9167 293.3016 15.32166840165400
