OBJECT_NAME,OBJECT_ID,EPOCH,MEAN_MOTION,ECCENTRICITY,INCLINATION,RA_OF_ASC_NODE,ARG_OF_PERICENTER,MEAN_ANOMALY,EPHEMERIS_TYPE,CLASSIFICATION_TYPE,NORAD_CAT_ID,ELEMENT_SET_NO,REV_AT_EPOCH,BSTAR,MEAN_MOTION_DOT,MEAN_MOTION_DDOT
CUBEBUG-2 (LO-74),2013-066AA,2026-06-22T10:07:40.152864,14.93801192,.00579912,97.8906,122.4220,11.9910,348.2675,0,U,39440,999,67777,.29960509E-3,.3222E-4,0
FUNCUBE-1 (AO-73),2013-066AE,2026-06-22T10:13:17.697792,15.09537633,.00362081,97.8272,144.9807,182.8900,177.2125,0,U,39444,999,68045,.26631498E-3,.4268E-4,0
UWE-3,2013-066AG,2026-06-22T10:17:56.997888,14.97061756,.0046984,97.8705,129.5379,303.4981,56.1755,0,U,39446,999,67836,.31599554E-3,.3661E-4,0
UNISAT-6,2014-033C,2026-06-22T07:26:50.449632,14.88266927,.00460136,97.7885,325.9320,52.8797,307.6611,0,U,40012,999,64692,.23554391E-3,.2162E-4,0
DUCHIFAT-1,2014-033M,2026-06-21T16:32:36.420288,15.65399754,.00022821,98.0446,232.4851,109.8910,250.2594,0,U,40021,999,65645,.8587898E-3,.86182E-3,0
QB50P1,2014-033R,2026-06-22T11:43:14.710944,15.18326980,.00083264,98.0967,185.0059,195.8641,164.2332,0,U,40025,999,65383,.2950677E-3,.5984E-4,0
LILACSAT-2,2015-049K,2026-06-22T19:39:07.557408,15.51603659,.0005962,97.4644,210.8748,219.1235,140.9587,0,U,40908,999,59662,.24595248E-3,.14505E-3,0
FOX-1A (AO-85),2015-058D,2026-06-22T17:14:37.947264,14.90988819,.01307562,64.7742,261.7939,54.4548,306.8672,0,U,40967,999,11439,.14171339E-3,.1472E-4,0
CAS-2T & KS-1Q,2016-066G,2026-06-22T20:25:00.384960,14.44710015,.03429053,98.3820,249.5224,112.3536,251.4371,0,U,41847,999,50561,.1851577E-3,.1272E-4,0
RADFXSAT (FOX-1B),2017-073E,2026-06-22T13:34:44.862528,15.12782562,.01489699,97.4701,40.6703,310.5186,48.3145,0,U,43017,999,46620,.25601989E-3,.5824E-4,0
DIWATA-2B,2018-084H,2026-06-22T20:07:08.847840,15.00474712,.00128671,98.1199,10.2927,152.1678,208.0235,0,U,43678,999,41706,.17463102E-3,.2136E-4,0
ES'HAIL 2,2018-090A,2026-06-22T19:42:17.464608,1.00272503,.00019971,0.0147,298.5974,189.9310,103.8271,0,U,43700,999,2773,0,.147E-5,0
FOX-1CLIFF (AO-95),2018-099N,2026-06-21T15:58:21.992448,15.26789061,.00075029,97.4381,232.8956,340.7571,19.3384,0,U,43770,999,41390,.31754199E-3,.8295E-4,0
ITASAT,2018-099AE,2026-06-22T02:15:00.716256,15.19106341,.0011561,97.4028,224.5076,342.4517,17.6316,0,U,43786,999,41365,.24832424E-3,.5153E-4,0
JY1SAT (JO-97),2018-099AX,2026-06-22T10:41:47.213376,15.33791959,.00046844,97.4130,236.2984,237.9316,122.1473,0,U,43803,999,41443,.40044728E-3,.13019E-3,0
UWE-4,2018-111E,2026-06-22T12:31:12.008928,15.46410589,.00046111,97.5841,102.1592,316.7180,43.3706,0,U,43880,999,41160,.54968362E-3,.27166E-3,0
TIANYAN 01,2019-093C,2026-06-22T20:00:24.924384,14.86528590,.00150846,97.7526,245.9281,70.3444,289.9398,0,U,44881,999,35225,.12792039E-3,.1081E-4,0
RS-44 & BREEZE-KM R/B,2019-096E,2026-06-22T17:05:53.835360,12.79748918,.02183613,82.5223,336.0326,131.2961,230.7169,0,U,44909,999,30305,.50720934E-4,.26E-6,0
SALSAT,2020-068K,2026-06-22T07:30:24.147072,15.29860164,.0007816,97.8856,176.6896,286.6046,73.4334,0,U,46495,999,31614,.20010299E-3,.5705E-4,0
XW-3 (CAS-9),2021-131B,2026-06-22T19:35:36.572064,14.41361831,.00053849,98.4977,266.1759,84.1044,276.0759,0,U,50466,999,23592,.13997913E-3,.409E-5,0
GREENCUBE (IO-117),2022-080E,2026-06-22T07:41:13.913088,6.42583197,.00089351,70.1445,296.4598,288.3983,71.5705,0,U,53109,999,9239,0,-.3E-7,0
UMKA 1 (RS40S),2023-091G,2026-06-22T19:38:02.073120,15.20872074,.0014338,97.5048,232.4937,100.3140,259.9713,0,U,57172,999,16486,.21365341E-3,.4662E-4,0
CUBESX-HSE 3 (RS42S),2023-091N,2026-06-22T20:37:01.509600,15.31333543,.00118203,97.5090,239.5180,77.2845,282.9717,0,U,57178,999,16529,.34916533E-3,.10513E-3,0
MONITOR-3 (RS58S),2023-091Q,2026-06-22T19:56:03.668928,15.27936610,.00129688,97.5082,237.3180,83.4433,276.8282,0,U,57180,999,16515,.29545356E-3,.7999E-4,0
MONITOR-4 (RS57S),2023-091S,2026-06-22T19:25:27.046848,15.28021576,.00129747,97.5076,237.2684,83.7335,276.5382,0,U,57182,999,16515,.30210485E-3,.8202E-4,0
MONITOR-2 (RS39S),2023-091U,2026-06-22T20:18:50.418432,15.18953592,.00127992,97.5071,232.0929,94.0133,266.2564,0,U,57184,999,16481,.19461805E-3,.4006E-4,0
SVYATOBOR 1 (RS60S),2023-091X,2026-06-22T19:51:17.468928,15.26694913,.00107238,97.5087,237.6756,77.5479,282.6959,0,U,57187,999,16517,.25068368E-3,.6517E-4,0
VIZARD-METEO (RS38S),2023-091Z,2026-06-22T19:33:33.496128,15.36175339,.00079059,97.5090,243.4134,60.7099,299.4933,0,U,57189,999,16555,.37183235E-3,.13043E-3,0
POLYTECH-UNIVERSE 3 (RS46S),2023-091AB,2026-06-22T19:22:04.513152,15.19157536,.00170625,97.5046,231.5579,108.9729,251.3356,0,U,57191,999,16480,.1777985E-3,.3681E-4,0
UTMN 2 (RS27S),2023-091AP,2026-06-22T19:23:51.078048,15.32166840,.00089355,97.5086,241.1075,66.9167,293.3016,0,U,57203,999,16540,.33892084E-3,.10462E-3,0
